[{"OBJECT_NAME":"IRIDIUM 33 DEB","OBJECT_ID":"1997-051GC","EPOCH":"2026-03-05T18:30:58.136544","MEAN_MOTION":14.43374509,"ECCENTRICITY":0.00294672,"INCLINATION":86.3482,"RA_OF_ASC_NODE":336.6456,"ARG_OF_PERICENTER":212.9401,"MEAN_ANOMALY":202.0704,"EPHEMERIS_TYPE":0,"CLASSIFICATION_TYPE":"U","NORAD_CAT_ID":34487,"ELEMENT_SET_NO":999,"REV_AT_EPOCH":89446,"BSTAR":0.00026749485,"MEAN_MOTION_DOT":9.26e-6,"MEAN_MOTION_DDOT":0},{"OBJECT_NAME":"IRIDIUM 33 DEB","OBJECT_ID":"1997-051GD","EPOCH":"2026-02-22T01:06:52.109280","MEAN_MOTION":15.78089963,"ECCENTRICITY":0.00047702,"INCLINATION":86.3081,"RA_OF_ASC_NODE":269.542,"ARG_OF_PERICENTER":70.8002,"MEAN_ANOMALY":289.3788,"EPHEMERIS_TYPE":0,"CLASSIFICATION_TYPE":"U","NORAD_CAT_ID":34488,"ELEMENT_SET_NO":999,"REV_AT_EPOCH":90341,"BSTAR":0.0064727089,"MEAN_MOTION_DOT":0.01238203,"MEAN_MOTION_DDOT":0},{"OBJECT_NAME":"IRIDIUM 33 DEB","OBJECT_ID":"1997-051GH","EPOCH":"2026-03-06T02:40:03.340992","MEAN_MOTION":14.27673579,"ECCENTRICITY":0.01863115,"INCLINATION":86.4697,"RA_OF_ASC_NODE":300.8852,"ARG_OF_PERICENTER":331.1488,"MEAN_ANOMALY":181.5951,"EPHEMERIS_TYPE":0,"CLASSIFICATION_TYPE":"U","NORAD_CAT_ID":34492,"ELEMENT_SET_NO":999,"REV_AT_EPOCH":86247,"BSTAR":0.0037451619,"MEAN_MOTION_DOT":0.00011132,"MEAN_MOTION_DDOT":0},{"OBJECT_NAME":"IRIDIUM 33 DEB","OBJECT_ID":"1997-051GN","EPOCH":"2026-03-05T20:14:29.702112","MEAN_MOTION":14.27766204,"ECCENTRICITY":0.00820497,"INCLINATION":86.2814,"RA_OF_ASC_NODE":16.8812,"ARG_OF_PERICENTER":70.7947,"MEAN_ANOMALY":319.3853,"EPHEMERIS_TYPE":0,"CLASSIFICATION_TYPE":"U","NORAD_CAT_ID":34497,"ELEMENT_SET_NO":999,"REV_AT_EPOCH":88069,"BSTAR":0.001140174,"MEAN_MOTION_DOT":2.937e-5,"MEAN_MOTION_DDOT":0},{"OBJECT_NAME":"IRIDIUM 33 DEB","OBJECT_ID":"1997-051GZ","EPOCH":"2026-03-06T06:36:02.470176","MEAN_MOTION":14.39102344,"ECCENTRICITY":0.00617457,"INCLINATION":86.3659,"RA_OF_ASC_NODE":67.1841,"ARG_OF_PERICENTER":259.1524,"MEAN_ANOMALY":100.2722,"EPHEMERIS_TYPE":0,"CLASSIFICATION_TYPE":"U","NORAD_CAT_ID":34508,"ELEMENT_SET_NO":999,"REV_AT_EPOCH":88510,"BSTAR":0.0013770814,"MEAN_MOTION_DOT":4.372e-5,"MEAN_MOTION_DDOT":0},{"OBJECT_NAME":"IRIDIUM 33 DEB","OBJECT_ID":"1997-051HN","EPOCH":"2026-03-06T05:49:50.309760","MEAN_MOTION":14.64604503,"ECCENTRICITY":0.00047424,"INCLINATION":86.3835,"RA_OF_ASC_NODE":353.7569,"ARG_OF_PERICENTER":17.4931,"MEAN_ANOMALY":342.6444,"EPHEMERIS_TYPE":0,"CLASSIFICATION_TYPE":"U","NORAD_CAT_ID":34521,"ELEMENT_SET_NO":999,"REV_AT_EPOCH":89694,"BSTAR":0.0015874103,"MEAN_MOTION_DOT":8.454e-5,"MEAN_MOTION_DDOT":0},{"OBJECT_NAME":"IRIDIUM 33 DEB","OBJECT_ID":"1997-051HS","EPOCH":"2026-03-06T08:05:14.037792","MEAN_MOTION":14.43163033,"ECCENTRICITY":0.00047956,"INCLINATION":86.377,"RA_OF_ASC_NODE":11.1502,"ARG_OF_PERICENTER":146.909,"MEAN_ANOMALY":8.0236,"EPHEMERIS_TYPE":0,"CLASSIFICATION_TYPE":"U","NORAD_CAT_ID":34525,"ELEMENT_SET_NO":999,"REV_AT_EPOCH":89293,"BSTAR":0.0005395002,"MEAN_MOTION_DOT":1.831e-5,"MEAN_MOTION_DDOT":0},{"OBJECT_NAME":"IRIDIUM 33 DEB","OBJECT_ID":"1997-051HW","EPOCH":"2026-03-06T06:08:35.725920","MEAN_MOTION":14.4073293,"ECCENTRICITY":0.00031444,"INCLINATION":86.3692,"RA_OF_ASC_NODE":359.811,"ARG_OF_PERICENTER":305.7402,"MEAN_ANOMALY":54.3505,"EPHEMERIS_TYPE":0,"CLASSIFICATION_TYPE":"U","NORAD_CAT_ID":34529,"ELEMENT_SET_NO":999,"REV_AT_EPOCH":89344,"BSTAR":0.00028040859,"MEAN_MOTION_DOT":9.15e-6,"MEAN_MOTION_DDOT":0},{"OBJECT_NAME":"IRIDIUM 33 DEB","OBJECT_ID":"1997-051JF","EPOCH":"2026-03-06T04:25:01.862976","MEAN_MOTION":14.4325667,"ECCENTRICITY":0.00364941,"INCLINATION":86.2795,"RA_OF_ASC_NODE":329.0091,"ARG_OF_PERICENTER":50.1191,"MEAN_ANOMALY":101.7107,"EPHEMERIS_TYPE":0,"CLASSIFICATION_TYPE":"U","NORAD_CAT_ID":34538,"ELEMENT_SET_NO":999,"REV_AT_EPOCH":88959,"BSTAR":0.00089666788,"MEAN_MOTION_DOT":3.061e-5,"MEAN_MOTION_DDOT":0},{"OBJECT_NAME":"IRIDIUM 33 DEB","OBJECT_ID":"1997-051JH","EPOCH":"2026-03-06T07:33:16.178112","MEAN_MOTION":14.7732474,"ECCENTRICITY":0.00142905,"INCLINATION":86.304,"RA_OF_ASC_NODE":269.329,"ARG_OF_PERICENTER":235.8166,"MEAN_ANOMALY":250.126,"EPHEMERIS_TYPE":0,"CLASSIFICATION_TYPE":"U","NORAD_CAT_ID":34540,"ELEMENT_SET_NO":999,"REV_AT_EPOCH":90254,"BSTAR":0.0014731496,"MEAN_MOTION_DOT":0.00010506,"MEAN_MOTION_DDOT":0},{"OBJECT_NAME":"IRIDIUM 33 DEB","OBJECT_ID":"1997-051JZ","EPOCH":"2026-03-05T12:01:32.760768","MEAN_MOTION":14.13356662,"ECCENTRICITY":0.01758,"INCLINATION":86.3879,"RA_OF_ASC_NODE":248.4805,"ARG_OF_PERICENTER":36.4413,"MEAN_ANOMALY":324.8586,"EPHEMERIS_TYPE":0,"CLASSIFICATION_TYPE":"U","NORAD_CAT_ID":34648,"ELEMENT_SET_NO":999,"REV_AT_EPOCH":86129,"BSTAR":0.0037111,"MEAN_MOTION_DOT":8.091e-5,"MEAN_MOTION_DDOT":0},{"OBJECT_NAME":"IRIDIUM 33 DEB","OBJECT_ID":"1997-051KC","EPOCH":"2026-03-06T01:52:09.848064","MEAN_MOTION":14.27225873,"ECCENTRICITY":0.01319012,"INCLINATION":86.2776,"RA_OF_ASC_NODE":105.0632,"ARG_OF_PERICENTER":295.4634,"MEAN_ANOMALY":63.296,"EPHEMERIS_TYPE":0,"CLASSIFICATION_TYPE":"U","NORAD_CAT_ID":34651,"ELEMENT_SET_NO":999,"REV_AT_EPOCH":87084,"BSTAR":0.0026814294,"MEAN_MOTION_DOT":7.204e-5,"MEAN_MOTION_DDOT":0},{"OBJECT_NAME":"IRIDIUM 33 DEB","OBJECT_ID":"1997-051KD","EPOCH":"2026-03-05T22:48:29.154816","MEAN_MOTION":14.62935061,"ECCENTRICITY":0.00287957,"INCLINATION":86.3297,"RA_OF_ASC_NODE":302.9417,"ARG_OF_PERICENTER":15.8101,"MEAN_ANOMALY":45.6626,"EPHEMERIS_TYPE":0,"CLASSIFICATION_TYPE":"U","NORAD_CAT_ID":34652,"ELEMENT_SET_NO":999,"REV_AT_EPOCH":89700,"BSTAR":0.00079526144,"MEAN_MOTION_DOT":4.115e-5,"MEAN_MOTION_DDOT":0},{"OBJECT_NAME":"IRIDIUM 33 DEB","OBJECT_ID":"1997-051KM","EPOCH":"2026-03-06T06:28:51.099168","MEAN_MOTION":14.55446992,"ECCENTRICITY":0.00125983,"INCLINATION":86.3823,"RA_OF_ASC_NODE":0.6791,"ARG_OF_PERICENTER":91.6454,"MEAN_ANOMALY":61.5565,"EPHEMERIS_TYPE":0,"CLASSIFICATION_TYPE":"U","NORAD_CAT_ID":34690,"ELEMENT_SET_NO":999,"REV_AT_EPOCH":89309,"BSTAR":0.00056149622,"MEAN_MOTION_DOT":2.463e-5,"MEAN_MOTION_DDOT":0},{"OBJECT_NAME":"IRIDIUM 33 DEB","OBJECT_ID":"1997-051KQ","EPOCH":"2026-02-24T23:46:27.128064","MEAN_MOTION":15.78525,"ECCENTRICITY":0.00039393,"INCLINATION":86.2833,"RA_OF_ASC_NODE":265.9163,"ARG_OF_PERICENTER":44.5223,"MEAN_ANOMALY":315.6368,"EPHEMERIS_TYPE":0,"CLASSIFICATION_TYPE":"U","NORAD_CAT_ID":34693,"ELEMENT_SET_NO":999,"REV_AT_EPOCH":90061,"BSTAR":0.0068576941,"MEAN_MOTION_DOT":0.01322234,"MEAN_MOTION_DDOT":0},{"OBJECT_NAME":"IRIDIUM 33 DEB","OBJECT_ID":"1997-051KT","EPOCH":"2026-03-06T06:07:49.635840","MEAN_MOTION":14.72065919,"ECCENTRICITY":0.0057229,"INCLINATION":86.1832,"RA_OF_ASC_NODE":348.4669,"ARG_OF_PERICENTER":244.2046,"MEAN_ANOMALY":268.7483,"EPHEMERIS_TYPE":0,"CLASSIFICATION_TYPE":"U","NORAD_CAT_ID":34696,"ELEMENT_SET_NO":999,"REV_AT_EPOCH":87898,"BSTAR":0.0055834672,"MEAN_MOTION_DOT":0.00036173,"MEAN_MOTION_DDOT":0}]
